SPACEMOBILE-006         
1 67232U 25309A   26127.23399549  .00002653  00000+0  14288-3 0  9992
2 67232  52.9951 159.1741 0011354  13.2359 346.8930 15.18339219 20375
